STARLINK-30069          
1 56834U 23079M   26067.48212902 -.00002416  00000+0 -80472-4 0  9995
2 56834  42.9986 110.4464 0000469 272.6695  87.4103 15.26726881152740
STARLINK-31006          
1 59024U 24038B   26068.12032424 -.00001457  00000+0 -43455-4 0  9990
2 59024  43.0055 339.8224 0000452 291.1610  68.9193 15.27569142115253
